{
  "type": "FeatureCollection",
  "features": [
    {
      "type": "Feature",
      "properties": {
        "norad_id": 35902,
        "name": "COSMOS 2251 DEB",
        "group": "cosmos-2251-debris",
        "lat": -51.417370973677905,
        "lon": -140.31511278442167,
        "alt_km": 761.7744469452819,
        "timestamp": "2025-12-09T07:41:33.608610+00:00",
        "meta_object_name": "COSMOS 2251 DEB",
        "meta_object_id": "1993-036AUR",
        "meta_epoch": "2025-12-07T23:58:19.658496",
        "meta_mean_motion": 14.26862668,
        "meta_eccentricity": 0.01019224,
        "meta_inclination": 73.9832,
        "meta_ra_of_asc_node": 243.186,
        "meta_arg_of_pericenter": 358.8404,
        "meta_mean_anomaly": 1.2491,
        "meta_ephemeris_type": 0,
        "meta_classification_type": "U",
        "meta_norad_cat_id": 35902,
        "meta_element_set_no": 999,
        "meta_rev_at_epoch": 61062,
        "meta_bstar": 0.0016367935,
        "meta_mean_motion_dot": 4.172e-05,
        "meta_mean_motion_ddot": 0,
        "tle_line1": "1 35902U 93036AUR 25341.99883864  .00004172  00000+0  16368-2 0  9999",
        "tle_line2": "2 35902  73.9832 243.1860 0101922 358.8404   1.2491 14.26862668610625"
      },
      "geometry": {
        "type": "Point",
        "coordinates": [
          -140.31511278442167,
          -51.417370973677905
        ]
      }
    },
    {
      "type": "Feature",
      "properties": {
        "norad_id": 35905,
        "name": "COSMOS 2251 DEB",
        "group": "cosmos-2251-debris",
        "lat": 73.69419190976961,
        "lon": -40.43948901357653,
        "alt_km": 619.7768846526797,
        "timestamp": "2025-12-09T07:41:33.608621+00:00",
        "meta_object_name": "COSMOS 2251 DEB",
        "meta_object_id": "1993-036AUU",
        "meta_epoch": "2025-12-07T08:49:24.431232",
        "meta_mean_motion": 14.98911662,
        "meta_eccentricity": 0.00909894,
        "meta_inclination": 74.0317,
        "meta_ra_of_asc_node": 221.7171,
        "meta_arg_of_pericenter": 303.0017,
        "meta_mean_anomaly": 56.2448,
        "meta_ephemeris_type": 0,
        "meta_classification_type": "U",
        "meta_norad_cat_id": 35905,
        "meta_element_set_no": 999,
        "meta_rev_at_epoch": 88502,
        "meta_bstar": 0.00087159571,
        "meta_mean_motion_dot": 0.00011465,
        "meta_mean_motion_ddot": 0,
        "tle_line1": "1 35905U 93036AUU 25341.36764388  .00011465  00000+0  87160-3 0  9994",
        "tle_line2": "2 35905  74.0317 221.7171 0090989 303.0017  56.2448 14.98911662885025"
      },
      "geometry": {
        "type": "Point",
        "coordinates": [
          -40.43948901357653,
          73.69419190976961
        ]
      }
    },
    {
      "type": "Feature",
      "properties": {
        "norad_id": 35959,
        "name": "COSMOS 2251 DEB",
        "group": "cosmos-2251-debris",
        "lat": -54.71565794971662,
        "lon": -65.54347432277834,
        "alt_km": 786.7047127491578,
        "timestamp": "2025-12-09T07:41:33.608631+00:00",
        "meta_object_name": "COSMOS 2251 DEB",
        "meta_object_id": "1993-036AUZ",
        "meta_epoch": "2025-12-08T08:31:28.444512",
        "meta_mean_motion": 14.34131307,
        "meta_eccentricity": 0.0021388,
        "meta_inclination": 74.0321,
        "meta_ra_of_asc_node": 320.0906,
        "meta_arg_of_pericenter": 41.8973,
        "meta_mean_anomaly": 318.381,
        "meta_ephemeris_type": 0,
        "meta_classification_type": "U",
        "meta_norad_cat_id": 35959,
        "meta_element_set_no": 999,
        "meta_rev_at_epoch": 84865,
        "meta_bstar": 0.00023984199,
        "meta_mean_motion_dot": 6.47e-06,
        "meta_mean_motion_ddot": 0,
        "tle_line1": "1 35959U 93036AUZ 25342.35519033  .00000647  00000+0  23984-3 0  9992",
        "tle_line2": "2 35959  74.0321 320.0906 0021388  41.8973 318.3810 14.34131307848656"
      },
      "geometry": {
        "type": "Point",
        "coordinates": [
          -65.54347432277834,
          -54.71565794971662
        ]
      }
    },
    {
      "type": "Feature",
      "properties": {
        "norad_id": 35961,
        "name": "COSMOS 2251 DEB",
        "group": "cosmos-2251-debris",
        "lat": -46.84890796129352,
        "lon": 48.104323171182244,
        "alt_km": 866.775728971641,
        "timestamp": "2025-12-09T07:41:33.608642+00:00",
        "meta_object_name": "COSMOS 2251 DEB",
        "meta_object_id": "1993-036AVB",
        "meta_epoch": "2025-12-08T23:47:16.047744",
        "meta_mean_motion": 14.05362993,
        "meta_eccentricity": 0.01920854,
        "meta_inclination": 73.9243,
        "meta_ra_of_asc_node": 210.7691,
        "meta_arg_of_pericenter": 145.0168,
        "meta_mean_anomaly": 216.3768,
        "meta_ephemeris_type": 0,
        "meta_classification_type": "U",
        "meta_norad_cat_id": 35961,
        "meta_element_set_no": 999,
        "meta_rev_at_epoch": 62629,
        "meta_bstar": 0.0010036012,
        "meta_mean_motion_dot": 1.896e-05,
        "meta_mean_motion_ddot": 0,
        "tle_line1": "1 35961U 93036AVB 25342.99115796  .00001896  00000+0  10036-2 0  9993",
        "tle_line2": "2 35961  73.9243 210.7691 0192085 145.0168 216.3768 14.05362993626290"
      },
      "geometry": {
        "type": "Point",
        "coordinates": [
          48.104323171182244,
          -46.84890796129352
        ]
      }
    },
    {
      "type": "Feature",
      "properties": {
        "norad_id": 35979,
        "name": "COSMOS 2251 DEB",
        "group": "cosmos-2251-debris",
        "lat": -15.482687028862816,
        "lon": -119.4815385413495,
        "alt_km": 616.630278740402,
        "timestamp": "2025-12-09T07:41:33.608652+00:00",
        "meta_object_name": "COSMOS 2251 DEB",
        "meta_object_id": "1993-036AVV",
        "meta_epoch": "2025-12-07T00:28:15.848832",
        "meta_mean_motion": 14.74528809,
        "meta_eccentricity": 0.00587537,
        "meta_inclination": 74.0106,
        "meta_ra_of_asc_node": 249.5726,
        "meta_arg_of_pericenter": 23.061,
        "meta_mean_anomaly": 352.2989,
        "meta_ephemeris_type": 0,
        "meta_classification_type": "U",
        "meta_norad_cat_id": 35979,
        "meta_element_set_no": 999,
        "meta_rev_at_epoch": 88549,
        "meta_bstar": 0.0016160682,
        "meta_mean_motion_dot": 0.00011041,
        "meta_mean_motion_ddot": 0,
        "tle_line1": "1 35979U 93036AVV 25341.01962788  .00011041  00000+0  16161-2 0  9993",
        "tle_line2": "2 35979  74.0106 249.5726 0058753  23.0610 352.2989 14.74528809885498"
      },
      "geometry": {
        "type": "Point",
        "coordinates": [
          -119.4815385413495,
          -15.482687028862816
        ]
      }
    },
    {
      "type": "Feature",
      "properties": {
        "norad_id": 35980,
        "name": "COSMOS 2251 DEB",
        "group": "cosmos-2251-debris",
        "lat": 48.58034774816558,
        "lon": 148.34950910058376,
        "alt_km": 723.145006111271,
        "timestamp": "2025-12-09T07:41:33.608662+00:00",
        "meta_object_name": "COSMOS 2251 DEB",
        "meta_object_id": "1993-036AVW",
        "meta_epoch": "2025-12-02T19:08:08.015136",
        "meta_mean_motion": 14.59062146,
        "meta_eccentricity": 0.00537712,
        "meta_inclination": 73.91,
        "meta_ra_of_asc_node": 141.7735,
        "meta_arg_of_pericenter": 277.5645,
        "meta_mean_anomaly": 81.9413,
        "meta_ephemeris_type": 0,
        "meta_classification_type": "U",
        "meta_norad_cat_id": 35980,
        "meta_element_set_no": 999,
        "meta_rev_at_epoch": 61341,
        "meta_bstar": 0.002036555,
        "meta_mean_motion_dot": 9.752e-05,
        "meta_mean_motion_ddot": 0,
        "tle_line1": "1 35980U 93036AVW 25336.79731499  .00009752  00000+0  20366-2 0  9995",
        "tle_line2": "2 35980  73.9100 141.7735 0053771 277.5645  81.9413 14.59062146613413"
      },
      "geometry": {
        "type": "Point",
        "coordinates": [
          148.34950910058376,
          48.58034774816558
        ]
      }
    },
    {
      "type": "Feature",
      "properties": {
        "norad_id": 35982,
        "name": "COSMOS 2251 DEB",
        "group": "cosmos-2251-debris",
        "lat": -62.970273356248484,
        "lon": -40.598292052070775,
        "alt_km": 719.3487604796419,
        "timestamp": "2025-12-09T07:41:33.608673+00:00",
        "meta_object_name": "COSMOS 2251 DEB",
        "meta_object_id": "1993-036AVY",
        "meta_epoch": "2025-12-08T10:39:50.053248",
        "meta_mean_motion": 14.62714143,
        "meta_eccentricity": 0.00640459,
        "meta_inclination": 74.0585,
        "meta_ra_of_asc_node": 355.1514,
        "meta_arg_of_pericenter": 62.7677,
        "meta_mean_anomaly": 297.9996,
        "meta_ephemeris_type": 0,
        "meta_classification_type": "U",
        "meta_norad_cat_id": 35982,
        "meta_element_set_no": 999,
        "meta_rev_at_epoch": 86103,
        "meta_bstar": 0.00083154209,
        "meta_mean_motion_dot": 4.334e-05,
        "meta_mean_motion_ddot": 0,
        "tle_line1": "1 35982U 93036AVY 25342.44432932  .00004334  00000+0  83154-3 0  9992",
        "tle_line2": "2 35982  74.0585 355.1514 0064045  62.7677 297.9996 14.62714143861038"
      },
      "geometry": {
        "type": "Point",
        "coordinates": [
          -40.598292052070775,
          -62.970273356248484
        ]
      }
    }
  ]
}